[{"OBJECT_NAME":"CELESTIS-17 & SHERPA-FX1","OBJECT_ID":"2021-006CB","EPOCH":"2026-03-09T15:26:05.078112","MEAN_MOTION":15.30994801,"ECCENTRICITY":0.000663,"INCLINATION":97.2397,"RA_OF_ASC_NODE":112.1052,"ARG_OF_PERICENTER":178.1385,"MEAN_ANOMALY":181.9882,"EPHEMERIS_TYPE":0,"CLASSIFICATION_TYPE":"U","NORAD_CAT_ID":47486,"ELEMENT_SET_NO":999,"REV_AT_EPOCH":28406,"BSTAR":0.00024301,"MEAN_MOTION_DOT":7.207e-5,"MEAN_MOTION_DDOT":0},{"OBJECT_NAME":"STARLINK-30207","OBJECT_ID":"2023-102D","EPOCH":"2026-03-09T22:00:01.999584","MEAN_MOTION":15.25875116,"ECCENTRICITY":0.00020196,"INCLINATION":43.0004,"RA_OF_ASC_NODE":232.7322,"ARG_OF_PERICENTER":299.4877,"MEAN_ANOMALY":71.1756,"EPHEMERIS_TYPE":0,"CLASSIFICATION_TYPE":"U","NORAD_CAT_ID":57407,"ELEMENT_SET_NO":999,"REV_AT_EPOCH":558,"BSTAR":0.037210791,"MEAN_MOTION_DOT":0.01063111,"MEAN_MOTION_DDOT":0}]
